{
  "type": "FeatureCollection",
  "features": [
    {
      "type": "Feature",
      "properties": {
        "norad_id": 29975,
        "name": "FENGYUN 1C DEB",
        "group": "fengyun-1c-debris",
        "lat": 58.645261863643164,
        "lon": -124.35954706046462,
        "alt_km": 956.4022994368388,
        "timestamp": "2025-12-24T16:52:41.804871+00:00",
        "meta_object_name": "FENGYUN 1C DEB",
        "meta_object_id": "1999-025KZ",
        "meta_epoch": "2025-12-24T02:39:31.473216",
        "meta_mean_motion": 13.98028841,
        "meta_eccentricity": 0.01130659,
        "meta_inclination": 99.3376,
        "meta_ra_of_asc_node": 39.372,
        "meta_arg_of_pericenter": 342.8526,
        "meta_mean_anomaly": 36.0178,
        "meta_ephemeris_type": 0,
        "meta_classification_type": "U",
        "meta_norad_cat_id": 29975,
        "meta_element_set_no": 999,
        "meta_rev_at_epoch": 96596,
        "meta_bstar": 0.00017160979,
        "meta_mean_motion_dot": 2.1e-06,
        "meta_mean_motion_ddot": 0,
        "tle_line1": "1 29975U 99025KZ  25358.11078094  .00000210  00000+0  17161-3 0  9991",
        "tle_line2": "2 29975  99.3376  39.3720 0113065 342.8526  36.0178 13.98028841965965"
      },
      "geometry": {
        "type": "Point",
        "coordinates": [
          -124.35954706046462,
          58.645261863643164
        ]
      }
    },
    {
      "type": "Feature",
      "properties": {
        "norad_id": 29976,
        "name": "FENGYUN 1C DEB",
        "group": "fengyun-1c-debris",
        "lat": -56.82408394753002,
        "lon": 9.589589907121844,
        "alt_km": 921.8562996766568,
        "timestamp": "2025-12-24T16:52:41.804882+00:00",
        "meta_object_name": "FENGYUN 1C DEB",
        "meta_object_id": "1999-025LA",
        "meta_epoch": "2025-12-23T17:58:36.340608",
        "meta_mean_motion": 13.98124568,
        "meta_eccentricity": 0.02675183,
        "meta_inclination": 98.9196,
        "meta_ra_of_asc_node": 354.7621,
        "meta_arg_of_pericenter": 208.981,
        "meta_mean_anomaly": 329.8751,
        "meta_ephemeris_type": 0,
        "meta_classification_type": "U",
        "meta_norad_cat_id": 29976,
        "meta_element_set_no": 999,
        "meta_rev_at_epoch": 96490,
        "meta_bstar": 0.00045081351,
        "meta_mean_motion_dot": 8.26e-06,
        "meta_mean_motion_ddot": 0,
        "tle_line1": "1 29976U 99025LA  25357.74903172  .00000826  00000+0  45081-3 0  9999",
        "tle_line2": "2 29976  98.9196 354.7621 0267518 208.9810 329.8751 13.98124568964902"
      },
      "geometry": {
        "type": "Point",
        "coordinates": [
          9.589589907121844,
          -56.82408394753002
        ]
      }
    },
    {
      "type": "Feature",
      "properties": {
        "norad_id": 29977,
        "name": "FENGYUN 1C DEB",
        "group": "fengyun-1c-debris",
        "lat": 9.893879661069983,
        "lon": 41.34574798269508,
        "alt_km": 820.9506205242969,
        "timestamp": "2025-12-24T16:52:41.804892+00:00",
        "meta_object_name": "FENGYUN 1C DEB",
        "meta_object_id": "1999-025LB",
        "meta_epoch": "2025-12-15T02:05:24.079200",
        "meta_mean_motion": 14.0509794,
        "meta_eccentricity": 0.0128352,
        "meta_inclination": 98.3968,
        "meta_ra_of_asc_node": 210.9629,
        "meta_arg_of_pericenter": 250.2626,
        "meta_mean_anomaly": 265.3537,
        "meta_ephemeris_type": 0,
        "meta_classification_type": "U",
        "meta_norad_cat_id": 29977,
        "meta_element_set_no": 999,
        "meta_rev_at_epoch": 96393,
        "meta_bstar": 0.001211704,
        "meta_mean_motion_dot": 2.064e-05,
        "meta_mean_motion_ddot": 0,
        "tle_line1": "1 29977U 99025LB  25349.08708425  .00002064  00000+0  12117-2 0  9991",
        "tle_line2": "2 29977  98.3968 210.9629 0128352 250.2626 265.3537 14.05097940963932"
      },
      "geometry": {
        "type": "Point",
        "coordinates": [
          41.34574798269508,
          9.893879661069983
        ]
      }
    },
    {
      "type": "Feature",
      "properties": {
        "norad_id": 29978,
        "name": "FENGYUN 1C DEB",
        "group": "fengyun-1c-debris",
        "lat": -38.68834067404114,
        "lon": -138.38743545196195,
        "alt_km": 966.7762125759155,
        "timestamp": "2025-12-24T16:52:41.804902+00:00",
        "meta_object_name": "FENGYUN 1C DEB",
        "meta_object_id": "1999-025LC",
        "meta_epoch": "2025-12-24T02:22:07.938336",
        "meta_mean_motion": 13.95911885,
        "meta_eccentricity": 0.00763728,
        "meta_inclination": 99.0598,
        "meta_ra_of_asc_node": 48.359,
        "meta_arg_of_pericenter": 21.3481,
        "meta_mean_anomaly": 41.6986,
        "meta_ephemeris_type": 0,
        "meta_classification_type": "U",
        "meta_norad_cat_id": 29978,
        "meta_element_set_no": 999,
        "meta_rev_at_epoch": 96475,
        "meta_bstar": 0.00017097569,
        "meta_mean_motion_dot": 1.96e-06,
        "meta_mean_motion_ddot": 0,
        "tle_line1": "1 29978U 99025LC  25358.09870299  .00000196  00000+0  17098-3 0  9990",
        "tle_line2": "2 29978  99.0598  48.3590 0076372  21.3481  41.6986 13.95911885964755"
      },
      "geometry": {
        "type": "Point",
        "coordinates": [
          -138.38743545196195,
          -38.68834067404114
        ]
      }
    },
    {
      "type": "Feature",
      "properties": {
        "norad_id": 29979,
        "name": "FENGYUN 1C DEB",
        "group": "fengyun-1c-debris",
        "lat": 80.9972732912099,
        "lon": -46.930451199121315,
        "alt_km": 739.0678653518053,
        "timestamp": "2025-12-24T16:52:41.804912+00:00",
        "meta_object_name": "FENGYUN 1C DEB",
        "meta_object_id": "1999-025LD",
        "meta_epoch": "2025-12-24T01:35:31.890912",
        "meta_mean_motion": 14.25986311,
        "meta_eccentricity": 0.01080321,
        "meta_inclination": 98.3694,
        "meta_ra_of_asc_node": 20.7711,
        "meta_arg_of_pericenter": 129.8714,
        "meta_mean_anomaly": 289.8388,
        "meta_ephemeris_type": 0,
        "meta_classification_type": "U",
        "meta_norad_cat_id": 29979,
        "meta_element_set_no": 999,
        "meta_rev_at_epoch": 98235,
        "meta_bstar": 0.00037759268,
        "meta_mean_motion_dot": 9.17e-06,
        "meta_mean_motion_ddot": 0,
        "tle_line1": "1 29979U 99025LD  25358.06634133  .00000917  00000+0  37759-3 0  9990",
        "tle_line2": "2 29979  98.3694  20.7711 0108032 129.8714 289.8388 14.25986311982354"
      },
      "geometry": {
        "type": "Point",
        "coordinates": [
          -46.930451199121315,
          80.9972732912099
        ]
      }
    },
    {
      "type": "Feature",
      "properties": {
        "norad_id": 29980,
        "name": "FENGYUN 1C DEB",
        "group": "fengyun-1c-debris",
        "lat": -70.43189468486004,
        "lon": -37.83946700720159,
        "alt_km": 829.6287887026047,
        "timestamp": "2025-12-24T16:52:41.804923+00:00",
        "meta_object_name": "FENGYUN 1C DEB",
        "meta_object_id": "1999-025LE",
        "meta_epoch": "2025-12-24T00:55:53.201280",
        "meta_mean_motion": 14.06323347,
        "meta_eccentricity": 0.0087171,
        "meta_inclination": 98.5518,
        "meta_ra_of_asc_node": 166.5767,
        "meta_arg_of_pericenter": 215.5721,
        "meta_mean_anomaly": 274.0236,
        "meta_ephemeris_type": 0,
        "meta_classification_type": "U",
        "meta_norad_cat_id": 29980,
        "meta_element_set_no": 999,
        "meta_rev_at_epoch": 97151,
        "meta_bstar": 5.8510344e-05,
        "meta_mean_motion_dot": 5.9e-07,
        "meta_mean_motion_ddot": 0,
        "tle_line1": "1 29980U 99025LE  25358.03881020  .00000059  00000+0  58510-4 0  9994",
        "tle_line2": "2 29980  98.5518 166.5767 0087171 215.5721 274.0236 14.06323347971511"
      },
      "geometry": {
        "type": "Point",
        "coordinates": [
          -37.83946700720159,
          -70.43189468486004
        ]
      }
    },
    {
      "type": "Feature",
      "properties": {
        "norad_id": 29982,
        "name": "FENGYUN 1C DEB",
        "group": "fengyun-1c-debris",
        "lat": 25.225759760591497,
        "lon": 177.2451959838732,
        "alt_km": 728.9875884087114,
        "timestamp": "2025-12-24T16:52:41.804933+00:00",
        "meta_object_name": "FENGYUN 1C DEB",
        "meta_object_id": "1999-025LG",
        "meta_epoch": "2025-12-24T02:33:46.464192",
        "meta_mean_motion": 14.66963747,
        "meta_eccentricity": 0.01216785,
        "meta_inclination": 99.4015,
        "meta_ra_of_asc_node": 181.0388,
        "meta_arg_of_pericenter": 253.5304,
        "meta_mean_anomaly": 222.9476,
        "meta_ephemeris_type": 0,
        "meta_classification_type": "U",
        "meta_norad_cat_id": 29982,
        "meta_element_set_no": 999,
        "meta_rev_at_epoch": 450,
        "meta_bstar": 0.00058439489,
        "meta_mean_motion_dot": 3.585e-05,
        "meta_mean_motion_ddot": 0,
        "tle_line1": "1 29982U 99025LG  25358.10678778  .00003585  00000+0  58439-3 0  9994",
        "tle_line2": "2 29982  99.4015 181.0388 0121678 253.5304 222.9476 14.66963747  4500"
      },
      "geometry": {
        "type": "Point",
        "coordinates": [
          177.2451959838732,
          25.225759760591497
        ]
      }
    }
  ]
}